{
  "type": "FeatureCollection",
  "features": [
    {
      "type": "Feature",
      "properties": {
        "norad_id": 34340,
        "name": "COSMOS 2251 DEB",
        "group": "cosmos-2251-debris",
        "lat": 66.29434083075449,
        "lon": 96.75771147751067,
        "alt_km": 800.5519649173339,
        "timestamp": "2025-12-07T03:52:32.896574+00:00",
        "meta_object_name": "COSMOS 2251 DEB",
        "meta_object_id": "1993-036PN",
        "meta_epoch": "2025-12-06T08:56:03.079968",
        "meta_mean_motion": 13.79538665,
        "meta_eccentricity": 0.028198,
        "meta_inclination": 74.0788,
        "meta_ra_of_asc_node": 318.6214,
        "meta_arg_of_pericenter": 67.9834,
        "meta_mean_anomaly": 79.5676,
        "meta_ephemeris_type": 0,
        "meta_classification_type": "U",
        "meta_norad_cat_id": 34340,
        "meta_element_set_no": 999,
        "meta_rev_at_epoch": 84180,
        "meta_bstar": 0.0016937884,
        "meta_mean_motion_dot": 2.331e-05,
        "meta_mean_motion_ddot": 0,
        "tle_line1": "1 34340U 93036PN  25340.37225787  .00002331  00000+0  16938-2 0  9997",
        "tle_line2": "2 34340  74.0788 318.6214 0281980  67.9834  79.5676 13.79538665841804"
      },
      "geometry": {
        "type": "Point",
        "coordinates": [
          96.75771147751067,
          66.29434083075449
        ]
      }
    },
    {
      "type": "Feature",
      "properties": {
        "norad_id": 34343,
        "name": "COSMOS 2251 DEB",
        "group": "cosmos-2251-debris",
        "lat": 2.873606081116323,
        "lon": -80.45425016452147,
        "alt_km": 680.648297774489,
        "timestamp": "2025-12-07T03:52:32.896584+00:00",
        "meta_object_name": "COSMOS 2251 DEB",
        "meta_object_id": "1993-036PR",
        "meta_epoch": "2025-12-06T07:34:01.728192",
        "meta_mean_motion": 14.69264655,
        "meta_eccentricity": 0.00228061,
        "meta_inclination": 74.0203,
        "meta_ra_of_asc_node": 102.0095,
        "meta_arg_of_pericenter": 19.0528,
        "meta_mean_anomaly": 3.7412,
        "meta_ephemeris_type": 0,
        "meta_classification_type": "U",
        "meta_norad_cat_id": 34343,
        "meta_element_set_no": 999,
        "meta_rev_at_epoch": 88636,
        "meta_bstar": 0.0029070817,
        "meta_mean_motion_dot": 0.00017227,
        "meta_mean_motion_ddot": 0,
        "tle_line1": "1 34343U 93036PR  25340.31529778  .00017227  00000+0  29071-2 0  9993",
        "tle_line2": "2 34343  74.0203 102.0095 0022806  19.0528   3.7412 14.69264655886361"
      },
      "geometry": {
        "type": "Point",
        "coordinates": [
          -80.45425016452147,
          2.873606081116323
        ]
      }
    },
    {
      "type": "Feature",
      "properties": {
        "norad_id": 34344,
        "name": "COSMOS 2251 DEB",
        "group": "cosmos-2251-debris",
        "lat": -70.98799548304383,
        "lon": -3.1855649688465406,
        "alt_km": 765.8121209768688,
        "timestamp": "2025-12-07T03:52:32.896595+00:00",
        "meta_object_name": "COSMOS 2251 DEB",
        "meta_object_id": "1993-036PS",
        "meta_epoch": "2025-12-05T11:56:44.170944",
        "meta_mean_motion": 14.16331086,
        "meta_eccentricity": 0.01553422,
        "meta_inclination": 73.9776,
        "meta_ra_of_asc_node": 123.2752,
        "meta_arg_of_pericenter": 308.8907,
        "meta_mean_anomaly": 112.1202,
        "meta_ephemeris_type": 0,
        "meta_classification_type": "U",
        "meta_norad_cat_id": 34344,
        "meta_element_set_no": 999,
        "meta_rev_at_epoch": 85994,
        "meta_bstar": 0.0025753986,
        "meta_mean_motion_dot": 5.727e-05,
        "meta_mean_motion_ddot": 0,
        "tle_line1": "1 34344U 93036PS  25339.49773346  .00005727  00000+0  25754-2 0  9999",
        "tle_line2": "2 34344  73.9776 123.2752 0155342 308.8907 112.1202 14.16331086859943"
      },
      "geometry": {
        "type": "Point",
        "coordinates": [
          -3.1855649688465406,
          -70.98799548304383
        ]
      }
    },
    {
      "type": "Feature",
      "properties": {
        "norad_id": 34346,
        "name": "COSMOS 2251 DEB",
        "group": "cosmos-2251-debris",
        "lat": -12.361873667696791,
        "lon": -41.68043851153398,
        "alt_km": 1034.4887224207032,
        "timestamp": "2025-12-07T03:52:32.896606+00:00",
        "meta_object_name": "COSMOS 2251 DEB",
        "meta_object_id": "1993-036PU",
        "meta_epoch": "2025-12-06T09:49:47.404416",
        "meta_mean_motion": 13.99665258,
        "meta_eccentricity": 0.02064991,
        "meta_inclination": 73.9952,
        "meta_ra_of_asc_node": 323.2302,
        "meta_arg_of_pericenter": 143.6647,
        "meta_mean_anomaly": 17.3103,
        "meta_ephemeris_type": 0,
        "meta_classification_type": "U",
        "meta_norad_cat_id": 34346,
        "meta_element_set_no": 999,
        "meta_rev_at_epoch": 85321,
        "meta_bstar": 0.0014890873,
        "meta_mean_motion_dot": 2.594e-05,
        "meta_mean_motion_ddot": 0,
        "tle_line1": "1 34346U 93036PU  25340.40957644  .00002594  00000+0  14891-2 0  9998",
        "tle_line2": "2 34346  73.9952 323.2302 0206499 143.6647  17.3103 13.99665258853211"
      },
      "geometry": {
        "type": "Point",
        "coordinates": [
          -41.68043851153398,
          -12.361873667696791
        ]
      }
    },
    {
      "type": "Feature",
      "properties": {
        "norad_id": 34383,
        "name": "COSMOS 2251 DEB",
        "group": "cosmos-2251-debris",
        "lat": 18.398026662983707,
        "lon": 123.73147216228129,
        "alt_km": 542.7802771189972,
        "timestamp": "2025-12-07T03:52:32.896616+00:00",
        "meta_object_name": "COSMOS 2251 DEB",
        "meta_object_id": "1993-036PY",
        "meta_epoch": "2025-12-06T08:43:23.687040",
        "meta_mean_motion": 15.08094446,
        "meta_eccentricity": 0.00026842,
        "meta_inclination": 74.0217,
        "meta_ra_of_asc_node": 310.8436,
        "meta_arg_of_pericenter": 34.0783,
        "meta_mean_anomaly": 115.696,
        "meta_ephemeris_type": 0,
        "meta_classification_type": "U",
        "meta_norad_cat_id": 34383,
        "meta_element_set_no": 999,
        "meta_rev_at_epoch": 89017,
        "meta_bstar": 0.0057635363,
        "meta_mean_motion_dot": 0.00090032,
        "meta_mean_motion_ddot": 0,
        "tle_line1": "1 34383U 93036PY  25340.36346860  .00090032  00000+0  57635-2 0  9993",
        "tle_line2": "2 34383  74.0217 310.8436 0002684  34.0783 115.6960 15.08094446890178"
      },
      "geometry": {
        "type": "Point",
        "coordinates": [
          123.73147216228129,
          18.398026662983707
        ]
      }
    },
    {
      "type": "Feature",
      "properties": {
        "norad_id": 34387,
        "name": "COSMOS 2251 DEB",
        "group": "cosmos-2251-debris",
        "lat": -41.24175522666896,
        "lon": -152.26836146791334,
        "alt_km": 724.7060973086118,
        "timestamp": "2025-12-07T03:52:32.896693+00:00",
        "meta_object_name": "COSMOS 2251 DEB",
        "meta_object_id": "1993-036QC",
        "meta_epoch": "2025-12-06T10:36:49.434912",
        "meta_mean_motion": 14.43800517,
        "meta_eccentricity": 0.00386126,
        "meta_inclination": 74.0398,
        "meta_ra_of_asc_node": 223.5988,
        "meta_arg_of_pericenter": 321.5963,
        "meta_mean_anomaly": 218.291,
        "meta_ephemeris_type": 0,
        "meta_classification_type": "U",
        "meta_norad_cat_id": 34387,
        "meta_element_set_no": 999,
        "meta_rev_at_epoch": 88090,
        "meta_bstar": 0.00057015645,
        "meta_mean_motion_dot": 1.932e-05,
        "meta_mean_motion_ddot": 0,
        "tle_line1": "1 34387U 93036QC  25340.44223883  .00001932  00000+0  57016-3 0  9990",
        "tle_line2": "2 34387  74.0398 223.5988 0038612 321.5963 218.2910 14.43800517880905"
      },
      "geometry": {
        "type": "Point",
        "coordinates": [
          -152.26836146791334,
          -41.24175522666896
        ]
      }
    },
    {
      "type": "Feature",
      "properties": {
        "norad_id": 34388,
        "name": "COSMOS 2251 DEB",
        "group": "cosmos-2251-debris",
        "lat": -8.021816409600707,
        "lon": 55.878092227148194,
        "alt_km": 732.0913754800531,
        "timestamp": "2025-12-07T03:52:32.896707+00:00",
        "meta_object_name": "COSMOS 2251 DEB",
        "meta_object_id": "1993-036QD",
        "meta_epoch": "2025-12-06T11:16:23.793312",
        "meta_mean_motion": 14.49316717,
        "meta_eccentricity": 0.00142551,
        "meta_inclination": 74.0396,
        "meta_ra_of_asc_node": 234.8634,
        "meta_arg_of_pericenter": 283.3065,
        "meta_mean_anomaly": 257.1986,
        "meta_ephemeris_type": 0,
        "meta_classification_type": "U",
        "meta_norad_cat_id": 34388,
        "meta_element_set_no": 999,
        "meta_rev_at_epoch": 88064,
        "meta_bstar": 0.0013876324,
        "meta_mean_motion_dot": 5.281e-05,
        "meta_mean_motion_ddot": 0,
        "tle_line1": "1 34388U 93036QD  25340.46971983  .00005281  00000+0  13876-2 0  9990",
        "tle_line2": "2 34388  74.0396 234.8634 0014255 283.3065 257.1986 14.49316717880648"
      },
      "geometry": {
        "type": "Point",
        "coordinates": [
          55.878092227148194,
          -8.021816409600707
        ]
      }
    }
  ]
}